[{"OBJECT_NAME":"SL-8 R/B","OBJECT_ID":"1988-053B","EPOCH":"2026-04-22T06:27:01.802304","MEAN_MOTION":14.38940239,"ECCENTRICITY":0.00207439,"INCLINATION":74.0494,"RA_OF_ASC_NODE":32.1338,"ARG_OF_PERICENTER":204.649,"MEAN_ANOMALY":323.3081,"EPHEMERIS_TYPE":0,"CLASSIFICATION_TYPE":"U","NORAD_CAT_ID":19257,"ELEMENT_SET_NO":999,"REV_AT_EPOCH":98286,"BSTAR":5.5912455e-5,"MEAN_MOTION_DOT":1.46e-6,"MEAN_MOTION_DDOT":0},{"OBJECT_NAME":"COSMOS 1975","OBJECT_ID":"1988-093A","EPOCH":"2026-04-22T06:19:14.544192","MEAN_MOTION":15.28603489,"ECCENTRICITY":0.00121622,"INCLINATION":82.5188,"RA_OF_ASC_NODE":73.9135,"ARG_OF_PERICENTER":27.1142,"MEAN_ANOMALY":333.073,"EPHEMERIS_TYPE":0,"CLASSIFICATION_TYPE":"U","NORAD_CAT_ID":19573,"ELEMENT_SET_NO":999,"REV_AT_EPOCH":2606,"BSTAR":0.00015133275,"MEAN_MOTION_DOT":4.251e-5,"MEAN_MOTION_DDOT":0},{"OBJECT_NAME":"SL-14 R/B","OBJECT_ID":"1988-093B","EPOCH":"2026-04-22T02:54:30.936960","MEAN_MOTION":14.85700844,"ECCENTRICITY":0.00191381,"INCLINATION":82.5336,"RA_OF_ASC_NODE":1.2842,"ARG_OF_PERICENTER":253.3769,"MEAN_ANOMALY":262.0977,"EPHEMERIS_TYPE":0,"CLASSIFICATION_TYPE":"U","NORAD_CAT_ID":19574,"ELEMENT_SET_NO":999,"REV_AT_EPOCH":746,"BSTAR":3.0374206e-5,"MEAN_MOTION_DOT":2.88e-6,"MEAN_MOTION_DDOT":0},{"OBJECT_NAME":"SL-16 R/B","OBJECT_ID":"1988-102B","EPOCH":"2026-04-22T06:35:29.011776","MEAN_MOTION":14.16158006,"ECCENTRICITY":0.00162387,"INCLINATION":70.9998,"RA_OF_ASC_NODE":59.7855,"ARG_OF_PERICENTER":299.545,"MEAN_ANOMALY":60.4054,"EPHEMERIS_TYPE":0,"CLASSIFICATION_TYPE":"U","NORAD_CAT_ID":19650,"ELEMENT_SET_NO":999,"REV_AT_EPOCH":93306,"BSTAR":-8.7089367e-5,"MEAN_MOTION_DOT":-2.2e-6,"MEAN_MOTION_DDOT":0},{"OBJECT_NAME":"INTERCOSMOS 24","OBJECT_ID":"1989-080A","EPOCH":"2026-04-22T06:05:31.673184","MEAN_MOTION":12.59599518,"ECCENTRICITY":0.11874405,"INCLINATION":82.6033,"RA_OF_ASC_NODE":76.0306,"ARG_OF_PERICENTER":191.6473,"MEAN_ANOMALY":165.477,"EPHEMERIS_TYPE":0,"CLASSIFICATION_TYPE":"U","NORAD_CAT_ID":20261,"ELEMENT_SET_NO":999,"REV_AT_EPOCH":67228,"BSTAR":3.6935667e-5,"MEAN_MOTION_DOT":1.42e-6,"MEAN_MOTION_DDOT":0},{"OBJECT_NAME":"SL-14 R/B","OBJECT_ID":"1989-080C","EPOCH":"2026-04-22T02:00:10.359936","MEAN_MOTION":12.50527036,"ECCENTRICITY":0.12309863,"INCLINATION":82.5916,"RA_OF_ASC_NODE":145.3394,"ARG_OF_PERICENTER":85.6164,"MEAN_ANOMALY":288.4224,"EPHEMERIS_TYPE":0,"CLASSIFICATION_TYPE":"U","NORAD_CAT_ID":20262,"ELEMENT_SET_NO":999,"REV_AT_EPOCH":66557,"BSTAR":6.2230816e-5,"MEAN_MOTION_DOT":2.4e-6,"MEAN_MOTION_DDOT":0},{"OBJECT_NAME":"DELTA 1 R/B","OBJECT_ID":"1989-089B","EPOCH":"2026-04-22T03:27:06.549120","MEAN_MOTION":14.5069496,"ECCENTRICITY":0.00686427,"INCLINATION":97.0667,"RA_OF_ASC_NODE":312.6593,"ARG_OF_PERICENTER":346.523,"MEAN_ANOMALY":13.4133,"EPHEMERIS_TYPE":0,"CLASSIFICATION_TYPE":"U","NORAD_CAT_ID":20323,"ELEMENT_SET_NO":999,"REV_AT_EPOCH":90203,"BSTAR":4.7547772e-5,"MEAN_MOTION_DOT":1.57e-6,"MEAN_MOTION_DDOT":0},{"OBJECT_NAME":"ARIANE 40 R/B","OBJECT_ID":"1990-005H","EPOCH":"2026-04-22T02:32:42.448704","MEAN_MOTION":14.3989699,"ECCENTRICITY":0.00113358,"INCLINATION":98.3004,"RA_OF_ASC_NODE":171.455,"ARG_OF_PERICENTER":77.0731,"MEAN_ANOMALY":283.1723,"EPHEMERIS_TYPE":0,"CLASSIFICATION_TYPE":"U","NORAD_CAT_ID":20443,"ELEMENT_SET_NO":999,"REV_AT_EPOCH":89905,"BSTAR":6.1233285e-5,"MEAN_MOTION_DOT":1.5e-6,"MEAN_MOTION_DDOT":0},{"OBJECT_NAME":"DELTA 2 R/B(1)","OBJECT_ID":"1990-008B","EPOCH":"2026-04-21T19:05:37.883040","MEAN_MOTION":15.61511881,"ECCENTRICITY":0.00753315,"INCLINATION":35.602,"RA_OF_ASC_NODE":250.7224,"ARG_OF_PERICENTER":303.4232,"MEAN_ANOMALY":55.9318,"EPHEMERIS_TYPE":0,"CLASSIFICATION_TYPE":"U","NORAD_CAT_ID":20453,"ELEMENT_SET_NO":999,"REV_AT_EPOCH":93286,"BSTAR":0.00059085879,"MEAN_MOTION_DOT":0.00060799,"MEAN_MOTION_DDOT":0},{"OBJECT_NAME":"COSMOS 2058","OBJECT_ID":"1990-010A","EPOCH":"2026-04-22T03:24:07.558560","MEAN_MOTION":15.11680026,"ECCENTRICITY":0.00093571,"INCLINATION":82.4701,"RA_OF_ASC_NODE":4.6178,"ARG_OF_PERICENTER":174.0282,"MEAN_ANOMALY":186.1062,"EPHEMERIS_TYPE":0,"CLASSIFICATION_TYPE":"U","NORAD_CAT_ID":20465,"ELEMENT_SET_NO":999,"REV_AT_EPOCH":94880,"BSTAR":0.00012284747,"MEAN_MOTION_DOT":2.121e-5,"MEAN_MOTION_DDOT":0},{"OBJECT_NAME":"SL-14 R/B","OBJECT_ID":"1990-010B","EPOCH":"2026-04-22T06:09:52.948512","MEAN_MOTION":14.83609163,"ECCENTRICITY":0.00205376,"INCLINATION":82.5037,"RA_OF_ASC_NODE":226.4617,"ARG_OF_PERICENTER":152.5862,"MEAN_ANOMALY":207.6441,"EPHEMERIS_TYPE":0,"CLASSIFICATION_TYPE":"U","NORAD_CAT_ID":20466,"ELEMENT_SET_NO":999,"REV_AT_EPOCH":93494,"BSTAR":3.9752941e-5,"MEAN_MOTION_DOT":3.53e-6,"MEAN_MOTION_DDOT":0},{"OBJECT_NAME":"SL-14 R/B","OBJECT_ID":"1990-018B","EPOCH":"2026-04-22T04:21:13.357440","MEAN_MOTION":14.82182533,"ECCENTRICITY":0.00150234,"INCLINATION":82.5238,"RA_OF_ASC_NODE":182.4526,"ARG_OF_PERICENTER":312.2561,"MEAN_ANOMALY":47.7378,"EPHEMERIS_TYPE":0,"CLASSIFICATION_TYPE":"U","NORAD_CAT_ID":20511,"ELEMENT_SET_NO":999,"REV_AT_EPOCH":92902,"BSTAR":2.8667481e-5,"MEAN_MOTION_DOT":2.52e-6,"MEAN_MOTION_DDOT":0},{"OBJECT_NAME":"HST","OBJECT_ID":"1990-037B","EPOCH":"2026-04-22T04:38:56.408352","MEAN_MOTION":15.30106155,"ECCENTRICITY":0.00017721,"INCLINATION":28.4737,"RA_OF_ASC_NODE":103.0742,"ARG_OF_PERICENTER":237.2093,"MEAN_ANOMALY":122.8332,"EPHEMERIS_TYPE":0,"CLASSIFICATION_TYPE":"U","NORAD_CAT_ID":20580,"ELEMENT_SET_NO":999,"REV_AT_EPOCH":77998,"BSTAR":0.00015003307,"MEAN_MOTION_DOT":4.727e-5,"MEAN_MOTION_DDOT":0},{"OBJECT_NAME":"SL-16 R/B","OBJECT_ID":"1990-046B","EPOCH":"2026-04-22T05:50:19.148352","MEAN_MOTION":14.15014904,"ECCENTRICITY":0.0016212,"INCLINATION":70.9993,"RA_OF_ASC_NODE":206.4398,"ARG_OF_PERICENTER":242.1031,"MEAN_ANOMALY":117.845,"EPHEMERIS_TYPE":0,"CLASSIFICATION_TYPE":"U","NORAD_CAT_ID":20625,"ELEMENT_SET_NO":999,"REV_AT_EPOCH":85455,"BSTAR":-1.421981e-5,"MEAN_MOTION_DOT":-7.5e-7,"MEAN_MOTION_DDOT":0},{"OBJECT_NAME":"COSMOS 2084","OBJECT_ID":"1990-055A","EPOCH":"2026-04-22T05:16:26.097600","MEAN_MOTION":15.05888353,"ECCENTRICITY":0.00102074,"INCLINATION":62.789,"RA_OF_ASC_NODE":187.0807,"ARG_OF_PERICENTER":207.8944,"MEAN_ANOMALY":152.161,"EPHEMERIS_TYPE":0,"CLASSIFICATION_TYPE":"U","NORAD_CAT_ID":20663,"ELEMENT_SET_NO":999,"REV_AT_EPOCH":94287,"BSTAR":0.0001128514,"MEAN_MOTION_DOT":1.446e-5,"MEAN_MOTION_DDOT":0},{"OBJECT_NAME":"SL-6 R/B(2)","OBJECT_ID":"1990-055D","EPOCH":"2026-04-22T06:18:10.706688","MEAN_MOTION":15.03780467,"ECCENTRICITY":0.00318572,"INCLINATION":62.7805,"RA_OF_ASC_NODE":105.6492,"ARG_OF_PERICENTER":356.2297,"MEAN_ANOMALY":3.8557,"EPHEMERIS_TYPE":0,"CLASSIFICATION_TYPE":"U","NORAD_CAT_ID":20666,"ELEMENT_SET_NO":999,"REV_AT_EPOCH":94474,"BSTAR":0.00012229329,"MEAN_MOTION_DOT":1.501e-5,"MEAN_MOTION_DDOT":0},{"OBJECT_NAME":"SL-8 R/B","OBJECT_ID":"1990-078B","EPOCH":"2026-04-22T05:39:08.066592","MEAN_MOTION":14.90243812,"ECCENTRICITY":0.03564494,"INCLINATION":82.9055,"RA_OF_ASC_NODE":212.1119,"ARG_OF_PERICENTER":226.8803,"MEAN_ANOMALY":130.21,"EPHEMERIS_TYPE":0,"CLASSIFICATION_TYPE":"U","NORAD_CAT_ID":20775,"ELEMENT_SET_NO":999,"REV_AT_EPOCH":81578,"BSTAR":0.00043867198,"MEAN_MOTION_DOT":0.0001494,"MEAN_MOTION_DDOT":0}]
