SL-8 R/B                
1 19257U 88053B   26112.26877086  .00000146  00000+0  55912-4 0  9990
2 19257  74.0494  32.1338 0020743 204.6490 323.3081 14.38940239982861
COSMOS 1975             
1 19573U 88093A   26112.26336278  .00004251  00000+0  15133-3 0  9999
2 19573  82.5188  73.9135 0012162  27.1142 333.0730 15.28603489 26065
SL-14 R/B               
1 19574U 88093B   26112.12119140  .00000288  00000+0  30374-4 0  9993
2 19574  82.5336   1.2842 0019138 253.3769 262.0977 14.85700844  7460
SL-16 R/B               
1 19650U 88102B   26112.27464134 -.00000220  00000+0 -87089-4 0  9994
2 19650  70.9998  59.7855 0016238 299.5450  60.4054 14.16158006933060
INTERCOSMOS 24          
1 20261U 89080A   26112.25383881  .00000142  00000+0  36936-4 0  9993
2 20261  82.6033  76.0306 1187440 191.6473 165.4770 12.59599518672282
SL-14 R/B               
1 20262U 89080C   26112.08345324  .00000240  00000+0  62231-4 0  9991
2 20262  82.5916 145.3394 1230986  85.6164 288.4224 12.50527036665573
DELTA 1 R/B             
1 20323U 89089B   26112.14382580  .00000157  00000+0  47548-4 0  9991
2 20323  97.0667 312.6593 0068642 346.5230  13.4133 14.50694960902038
ARIANE 40 R/B           
1 20443U 90005H   26112.10604686  .00000150  00000+0  61233-4 0  9994
2 20443  98.3004 171.4550 0011335  77.0731 283.1723 14.39896990899055
DELTA 2 R/B(1)          
1 20453U 90008B   26111.79557735  .00060799  00000+0  59086-3 0  9991
2 20453  35.6020 250.7224 0075331 303.4232  55.9318 15.61511881932866
COSMOS 2058             
1 20465U 90010A   26112.14175415  .00002121  00000+0  12285-3 0  9993
2 20465  82.4701   4.6178 0009357 174.0282 186.1062 15.11680026948808
SL-14 R/B               
1 20466U 90010B   26112.25686283  .00000353  00000+0  39753-4 0  9991
2 20466  82.5037 226.4617 0020537 152.5862 207.6441 14.83609163934943
SL-14 R/B               
1 20511U 90018B   26112.18140460  .00000252  00000+0  28667-4 0  9994
2 20511  82.5238 182.4526 0015023 312.2561  47.7378 14.82182533929023
HST                     
1 20580U 90037B   26112.19370843  .00004727  00000+0  15003-3 0  9992
2 20580  28.4737 103.0742 0001772 237.2093 122.8332 15.30106155779986
SL-16 R/B               
1 20625U 90046B   26112.24327718 -.00000075  00000+0 -14220-4 0  9996
2 20625  70.9993 206.4398 0016212 242.1031 117.8450 14.15014904854553
COSMOS 2084             
1 20663U 90055A   26112.21974650  .00001446  00000+0  11285-3 0  9996
2 20663  62.7890 187.0807 0010207 207.8944 152.1610 15.05888353942878
SL-6 R/B(2)             
1 20666U 90055D   26112.26262392  .00001501  00000+0  12229-3 0  9998
2 20666  62.7805 105.6492 0031857 356.2297   3.8557 15.03780467944742
SL-8 R/B                
1 20775U 90078B   26112.23551003  .00014940  00000+0  43867-3 0  9994
2 20775  82.9055 212.1119 0356449 226.8803 130.2100 14.90243812815789
